[{"OBJECT_NAME":"OBJECT A","OBJECT_ID":"2025-013A","EPOCH":"2026-03-09T23:29:31.895232","MEAN_MOTION":15.29260221,"ECCENTRICITY":0.0010321,"INCLINATION":97.6364,"RA_OF_ASC_NODE":244.5149,"ARG_OF_PERICENTER":282.3775,"MEAN_ANOMALY":77.6309,"EPHEMERIS_TYPE":0,"CLASSIFICATION_TYPE":"U","NORAD_CAT_ID":62729,"ELEMENT_SET_NO":999,"REV_AT_EPOCH":6276,"BSTAR":0.0013206527,"MEAN_MOTION_DOT":0.00037616,"MEAN_MOTION_DDOT":0},{"OBJECT_NAME":"STARLINK-35603","OBJECT_ID":"2025-237AD","EPOCH":"2026-03-09T22:25:03.942624","MEAN_MOTION":15.30224327,"ECCENTRICITY":0.0001339,"INCLINATION":53.1589,"RA_OF_ASC_NODE":38.792,"ARG_OF_PERICENTER":88.999,"MEAN_ANOMALY":271.1165,"EPHEMERIS_TYPE":0,"CLASSIFICATION_TYPE":"U","NORAD_CAT_ID":66141,"ELEMENT_SET_NO":999,"REV_AT_EPOCH":2264,"BSTAR":0.0013293779,"MEAN_MOTION_DOT":0.00039251,"MEAN_MOTION_DDOT":0}]
